*******************************************************************************
Ephemeris / WWW_USER Fri Nov  8 05:53:50 2019 Pasadena, USA      / Horizons    
*******************************************************************************
Target body name: Saturn (699)                    {source: sat425l_merged_DE438}
Center body name: Solar System Barycenter (0)     {source: DE431mx}
Center-site name: BODY CENTER
*******************************************************************************
Start time      : A.D. 1977-Aug-20 00:00:00.0000 TDB
Stop  time      : A.D. 1999-Dec-31 00:00:00.0000 TDB
Step-size       : 1440 minutes
*******************************************************************************
Center geodetic : 0.00000000,0.00000000,0.0000000 {E-lon(deg),Lat(deg),Alt(km)}
Center cylindric: 0.00000000,0.00000000,0.0000000 {E-lon(deg),Dxy(km),Dz(km)}
Center radii    : (undefined)                                                  
Output units    : AU-D                                                         
Output type     : GEOMETRIC cartesian states
Output format   : 3 (position, velocity, LT, range, range-rate)
Reference frame : ICRF/J2000.0                                                 
Coordinate systm: Ecliptic and Mean Equinox of Reference Epoch                 
*******************************************************************************
JDTDB
   X     Y     Z
   VX    VY    VZ
   LT    RG    RR
*******************************************************************************
$$SOE
2451299.500000000 = A.D. 1999-May-01 00:00:00.0000 TDB 
 X = 7.374324446666861E+00 Y = 5.542174942880138E+00 Z =-3.897846094884125E-01
 VX=-3.643408046206516E-03 VY= 4.449094109129741E-03 VZ= 6.769302354963918E-05
 LT= 5.332536300105862E-02 RG= 9.233000389038821E+00 RR=-2.422182106255905E-04
2451300.500000000 = A.D. 1999-May-02 00:00:00.0000 TDB 
 X = 7.370679816211133E+00 Y = 5.546623017625263E+00 Z =-3.897168725766301E-01
 VX=-3.645876331195215E-03 VY= 4.447080142268921E-03 VZ= 6.777027267643828E-05
 LT= 5.332396520775595E-02 RG= 9.232758368630876E+00 RR=-2.418260218654084E-04
2451301.500000000 = A.D. 1999-May-03 00:00:00.0000 TDB 
 X = 7.367032659510690E+00 Y = 5.551069105366252E+00 Z =-3.896490664660054E-01
 VX=-3.648430880451720E-03 VY= 4.445097985413380E-03 VZ= 6.783975721276922E-05
 LT= 5.332256950810010E-02 RG= 9.232516710726641E+00 RR=-2.414831321754460E-04
2451302.500000000 = A.D. 1999-May-04 00:00:00.0000 TDB 
 X = 7.363382948580189E+00 Y = 5.555513251360821E+00 Z =-3.895812124588056E-01
 VX=-3.651013671416083E-03 VY= 4.443212828918683E-03 VZ= 6.786068800275137E-05
 LT= 5.332117593654579E-02 RG= 9.232275421291764E+00 RR=-2.411021347392986E-04
2451303.500000000 = A.D. 1999-May-05 00:00:00.0000 TDB 
 X = 7.359730587183441E+00 Y = 5.559955538536062E+00 Z =-3.895133447663104E-01
 VX=-3.653723181508281E-03 VY= 4.441359915681841E-03 VZ= 6.787653572769758E-05
 LT= 5.331978434825464E-02 RG= 9.232034475248259E+00 RR=-2.408021131900129E-04
2451304.500000000 = A.D. 1999-May-06 00:00:00.0000 TDB 
 X = 7.356075478830728E+00 Y = 5.564395980369468E+00 Z =-3.894454622034946E-01
 VX=-3.656518467314379E-03 VY= 4.439530571072447E-03 VZ= 6.788749224204991E-05
 LT= 5.331839434863273E-02 RG= 9.231793804274307E+00 RR=-2.405554428291024E-04
2451305.500000000 = A.D. 1999-May-07 00:00:00.0000 TDB 
 X = 7.352417504568571E+00 Y = 5.568834584935759E+00 Z =-3.893775579315193E-01
 VX=-3.659444722347695E-03 VY= 4.437669519080291E-03 VZ= 6.792684573452241E-05
 LT= 5.331700542056649E-02 RG= 9.231553318834468E+00 RR=-2.404326825478417E-04
2451306.500000000 = A.D. 1999-May-08 00:00:00.0000 TDB 
 X = 7.348756549462658E+00 Y = 5.573271296813076E+00 Z =-3.893095930789892E-01
 VX=-3.662481977894676E-03 VY= 4.435726174854242E-03 VZ= 6.801913030865959E-05
 LT= 5.331561683736097E-02 RG= 9.231312893105409E+00 RR=-2.404493897184106E-04
2451307.500000000 = A.D. 1999-May-09 00:00:00.0000 TDB 
 X = 7.345092559722505E+00 Y = 5.577705991095342E+00 Z =-3.892414980276039E-01
 VX=-3.665485620059643E-03 VY= 4.433658815035281E-03 VZ= 6.817124092626713E-05
 LT= 5.331422790373071E-02 RG= 9.231072406702189E+00 RR=-2.405160309330380E-04
2451308.500000000 = A.D. 1999-May-10 00:00:00.0000 TDB 
 X = 7.341425567156882E+00 Y = 5.582138614033758E+00 Z =-3.891732497091560E-01
 VX=-3.668515553593628E-03 VY= 4.431572873561865E-03 VZ= 6.833428401383219E-05
 LT= 5.331283857650909E-02 RG= 9.230831852150738E+00 RR=-2.406146847003209E-04
2451309.500000000 = A.D. 1999-May-11 00:00:00.0000 TDB 
 X = 7.337755529298063E+00 Y = 5.586569088271501E+00 Z =-3.891048048717528E-01
 VX=-3.671543229980741E-03 VY= 4.429357272320896E-03 VZ= 6.856302442759970E-05
 LT= 5.331144838321343E-02 RG= 9.230591147643214E+00 RR=-2.407922076798273E-04
2451310.500000000 = A.D. 1999-May-12 00:00:00.0000 TDB 
 X = 7.334082497589423E+00 Y = 5.590997310585522E+00 Z =-3.890361160843662E-01
 VX=-3.674513851534110E-03 VY= 4.427067849690399E-03 VZ= 6.882404018162268E-05
 LT= 5.331005719032950E-02 RG= 9.230350270062349E+00 RR=-2.409700885119323E-04
2451311.500000000 = A.D. 1999-May-13 00:00:00.0000 TDB 
 X = 7.330406543920068E+00 Y = 5.595423194255759E+00 Z =-3.889671461383895E-01
 VX=-3.677372153382965E-03 VY= 4.424694954245418E-03 VZ= 6.911589597700867E-05
 LT= 5.330866501679597E-02 RG= 9.230109222687267E+00 RR=-2.411104659994180E-04
2451312.500000000 = A.D. 1999-May-14 00:00:00.0000 TDB 
 X = 7.326727792202548E+00 Y = 5.599846686363793E+00 Z =-3.888978808307594E-01
 VX=-3.680098540140482E-03 VY= 4.422284121668230E-03 VZ= 6.941405406032394E-05
 LT= 5.330727224251446E-02 RG= 9.229868071295895E+00 RR=-2.411694434349206E-04
2451313.500000000 = A.D. 1999-May-15 00:00:00.0000 TDB 
 X = 7.323046404139950E+00 Y = 5.604267789178172E+00 Z =-3.888283382016254E-01
 VX=-3.682665082932263E-03 VY= 4.419945139999422E-03 VZ= 6.965755742244228E-05
 LT= 5.330587962028272E-02 RG= 9.229626946231125E+00 RR=-2.410558910389929E-04
2451314.500000000 = A.D. 1999-May-16 00:00:00.0000 TDB 
 X = 7.319362455227941E+00 Y = 5.608686600540266E+00 Z =-3.887585773446881E-01
 VX=-3.685226339173301E-03 VY= 4.417672304728138E-03 VZ= 6.986620927691032E-05
 LT= 5.330448785210634E-02 RG= 9.229385969041459E+00 RR=-2.408967335894715E-04
2451315.500000000 = A.D. 1999-May-17 00:00:00.0000 TDB 
 X = 7.315675997305273E+00 Y = 5.613103147883997E+00 Z =-3.886886178981226E-01
 VX=-3.687675399138736E-03 VY= 4.415450502067439E-03 VZ= 7.003666307935514E-05
 LT= 5.330309727524698E-02 RG= 9.229145198121943E+00 RR=-2.406161889270171E-04
2451316.500000000 = A.D. 1999-May-18 00:00:00.0000 TDB 
 X = 7.311987099397194E+00 Y = 5.617517542432666E+00 Z =-3.886185247090662E-01
 VX=-3.690119004739412E-03 VY= 4.413355045276780E-03 VZ= 7.014076097519118E-05
 LT= 5.330170861104339E-02 RG= 9.228904758368502E+00 RR=-2.402518204677065E-04
2451317.500000000 = A.D. 1999-May-19 00:00:00.0000 TDB 
 X = 7.308295746539232E+00 Y = 5.621929901301340E+00 Z =-3.885483580915658E-01
 VX=-3.692604067750890E-03 VY= 4.411381449774919E-03 VZ= 7.018443925690100E-05
 LT= 5.330032221699277E-02 RG= 9.228664711679864E+00 RR=-2.398435137964357E-04
2451318.500000000 = A.D. 1999-May-20 00:00:00.0000 TDB 
 X = 7.304601859097660E+00 Y = 5.626340326313809E+00 Z =-3.884781635487007E-01
 VX=-3.695184863432455E-03 VY= 4.409479864066582E-03 VZ= 7.019985348574449E-05
 LT= 5.329893809898918E-02 RG= 9.228425059076557E+00 RR=-2.394656663394269E-04
2451319.500000000 = A.D. 1999-May-21 00:00:00.0000 TDB 
 X = 7.300905333741648E+00 Y = 5.630748884577158E+00 Z =-3.884079667080816E-01
 VX=-3.697901519939249E-03 VY= 4.407640710127747E-03 VZ= 7.019527484622948E-05
 LT= 5.329755602934472E-02 RG= 9.228185761135634E+00 RR=-2.391559272329893E-04
2451320.500000000 = A.D. 1999-May-22 00:00:00.0000 TDB 
 X = 7.297206013212874E+00 Y = 5.635155571902139E+00 Z =-3.883377502447092E-01
 VX=-3.700733829640098E-03 VY= 4.405719492418455E-03 VZ= 7.024426764876750E-05
 LT= 5.329617527387209E-02 RG= 9.227946690736514E+00 RR=-2.389893422434372E-04
2451321.500000000 = A.D. 1999-May-23 00:00:00.0000 TDB 
 X = 7.293503861636633E+00 Y = 5.639560335646501E+00 Z =-3.882674844779379E-01
 VX=-3.703593908852576E-03 VY= 4.403811830012734E-03 VZ= 7.028762485876303E-05
 LT= 5.329479547981957E-02 RG= 9.227707786802126E+00 RR=-2.388355162704107E-04
2451322.500000000 = A.D. 1999-May-24 00:00:00.0000 TDB 
 X = 7.289798787789980E+00 Y = 5.643963175816318E+00 Z =-3.881971615166194E-01
 VX=-3.706567535761938E-03 VY= 4.401855839108322E-03 VZ= 7.036586253140912E-05
 LT= 5.329341623291815E-02 RG= 9.227468977604012E+00 RR=-2.388016802148261E-04
2451323.500000000 = A.D. 1999-May-25 00:00:00.0000 TDB 
 X = 7.286090704695606E+00 Y = 5.648364017198147E+00 Z =-3.881267351627780E-01
 VX=-3.709607213723128E-03 VY= 4.399807043083107E-03 VZ= 7.049807980785300E-05
 LT= 5.329203686384902E-02 RG= 9.227230147253216E+00 RR=-2.388782990767237E-04
2451324.500000000 = A.D. 1999-May-26 00:00:00.0000 TDB 
 X = 7.282379578126108E+00 Y = 5.652762748063949E+00 Z =-3.880561445784216E-01
 VX=-3.712636642150579E-03 VY= 4.397640154459289E-03 VZ= 7.068940582384641E-05
 LT= 5.329065681093088E-02 RG= 9.226991198497631E+00 RR=-2.390209582001167E-04
2451325.500000000 = A.D. 1999-May-27 00:00:00.0000 TDB 
 X = 7.278665432380495E+00 Y = 5.657159274647116E+00 Z =-3.879853448469742E-01
 VX=-3.715653360243843E-03 VY= 4.395385826851298E-03 VZ= 7.092401849692571E-05
 LT= 5.328927584567061E-02 RG= 9.226752091774909E+00 RR=-2.392084921879453E-04
2451326.500000000 = A.D. 1999-May-28 00:00:00.0000 TDB 
 X = 7.274948324829985E+00 Y = 5.661553480974242E+00 Z =-3.879142823133050E-01
 VX=-3.718534940207290E-03 VY= 4.393030837398545E-03 VZ= 7.119600676058278E-05
 LT= 5.328789380811291E-02 RG= 9.226512799389637E+00 RR=-2.393524509708664E-04
